[{"OBJECT_NAME":"STARLINK-1470","OBJECT_ID":"2020-038AU","EPOCH":"2026-03-09T14:36:51.476832","MEAN_MOTION":15.2807486,"ECCENTRICITY":0.0002444,"INCLINATION":53.048,"RA_OF_ASC_NODE":174.6971,"ARG_OF_PERICENTER":12.8687,"MEAN_ANOMALY":347.2373,"EPHEMERIS_TYPE":0,"CLASSIFICATION_TYPE":"U","NORAD_CAT_ID":45772,"ELEMENT_SET_NO":999,"REV_AT_EPOCH":31706,"BSTAR":0.0019687,"MEAN_MOTION_DOT":0.00054678,"MEAN_MOTION_DDOT":0},{"OBJECT_NAME":"STARLINK-31513","OBJECT_ID":"2024-073U","EPOCH":"2026-03-08T09:19:18.443424","MEAN_MOTION":15.27571283,"ECCENTRICITY":9.813e-5,"INCLINATION":43.0017,"RA_OF_ASC_NODE":322.1256,"ARG_OF_PERICENTER":277.8235,"MEAN_ANOMALY":82.2506,"EPHEMERIS_TYPE":0,"CLASSIFICATION_TYPE":"U","NORAD_CAT_ID":59529,"ELEMENT_SET_NO":999,"REV_AT_EPOCH":10601,"BSTAR":-4.7338064e-5,"MEAN_MOTION_DOT":-1.564e-5,"MEAN_MOTION_DDOT":0}]
